[{"OBJECT_NAME":"ONEWEB-0598","OBJECT_ID":"2023-004Q","EPOCH":"2025-09-22T04:56:37.646592","MEAN_MOTION":13.11417706,"ECCENTRICITY":0.00015604,"INCLINATION":87.8783,"RA_OF_ASC_NODE":74.4625,"ARG_OF_PERICENTER":114.0941,"MEAN_ANOMALY":246.035,"EPHEMERIS_TYPE":0,"CLASSIFICATION_TYPE":"U","NORAD_CAT_ID":55154,"ELEMENT_SET_NO":999,"REV_AT_EPOCH":13077,"BSTAR":-0.00059081625,"MEAN_MOTION_DOT":-1.97e-6,"MEAN_MOTION_DDOT":0},{"OBJECT_NAME":"ONEWEB-0599","OBJECT_ID":"2023-004R","EPOCH":"2025-09-22T02:55:49.200672","MEAN_MOTION":13.17649486,"ECCENTRICITY":0.00015228,"INCLINATION":87.9063,"RA_OF_ASC_NODE":59.1854,"ARG_OF_PERICENTER":97.3021,"MEAN_ANOMALY":262.8284,"EPHEMERIS_TYPE":0,"CLASSIFICATION_TYPE":"U","NORAD_CAT_ID":55155,"ELEMENT_SET_NO":999,"REV_AT_EPOCH":13218,"BSTAR":8.4135064e-5,"MEAN_MOTION_DOT":4.6e-7,"MEAN_MOTION_DDOT":0},{"OBJECT_NAME":"ONEWEB-0614","OBJECT_ID":"2023-004S","EPOCH":"2025-09-22T04:49:17.190624","MEAN_MOTION":13.11416048,"ECCENTRICITY":0.00019874,"INCLINATION":87.8779,"RA_OF_ASC_NODE":74.4736,"ARG_OF_PERICENTER":87.1513,"MEAN_ANOMALY":272.9842,"EPHEMERIS_TYPE":0,"CLASSIFICATION_TYPE":"U","NORAD_CAT_ID":55156,"ELEMENT_SET_NO":999,"REV_AT_EPOCH":13071,"BSTAR":-0.0011198745,"MEAN_MOTION_DOT":-3.84e-6,"MEAN_MOTION_DDOT":0},{"OBJECT_NAME":"ONEWEB-0616","OBJECT_ID":"2023-004T","EPOCH":"2025-09-21T22:28:31.079712","MEAN_MOTION":13.1764972,"ECCENTRICITY":5.357e-5,"INCLINATION":87.9063,"RA_OF_ASC_NODE":59.2132,"ARG_OF_PERICENTER":70.7576,"MEAN_ANOMALY":289.3613,"EPHEMERIS_TYPE":0,"CLASSIFICATION_TYPE":"U","NORAD_CAT_ID":55157,"ELEMENT_SET_NO":999,"REV_AT_EPOCH":13237,"BSTAR":0.00041394018,"MEAN_MOTION_DOT":1.74e-6,"MEAN_MOTION_DDOT":0},{"OBJECT_NAME":"ONEWEB-0617","OBJECT_ID":"2023-004U","EPOCH":"2025-09-22T04:32:12.685344","MEAN_MOTION":13.11416126,"ECCENTRICITY":0.00020024,"INCLINATION":87.878,"RA_OF_ASC_NODE":74.4541,"ARG_OF_PERICENTER":93.7172,"MEAN_ANOMALY":266.4185,"EPHEMERIS_TYPE":0,"CLASSIFICATION_TYPE":"U","NORAD_CAT_ID":55158,"ELEMENT_SET_NO":999,"REV_AT_EPOCH":13073,"BSTAR":-0.0016200739,"MEAN_MOTION_DOT":-5.61e-6,"MEAN_MOTION_DDOT":0},{"OBJECT_NAME":"ONEWEB-0618","OBJECT_ID":"2023-004V","EPOCH":"2025-09-22T01:58:56.170848","MEAN_MOTION":14.87479424,"ECCENTRICITY":0.00133823,"INCLINATION":86.9032,"RA_OF_ASC_NODE":286.0016,"ARG_OF_PERICENTER":197.4393,"MEAN_ANOMALY":162.6375,"EPHEMERIS_TYPE":0,"CLASSIFICATION_TYPE":"U","NORAD_CAT_ID":55159,"ELEMENT_SET_NO":999,"REV_AT_EPOCH":14181,"BSTAR":0.00031703959,"MEAN_MOTION_DOT":2.902e-5,"MEAN_MOTION_DDOT":0},{"OBJECT_NAME":"ONEWEB-0619","OBJECT_ID":"2023-004W","EPOCH":"2025-09-22T04:42:44.948448","MEAN_MOTION":13.17648992,"ECCENTRICITY":0.00017745,"INCLINATION":87.9062,"RA_OF_ASC_NODE":59.136,"ARG_OF_PERICENTER":76.9785,"MEAN_ANOMALY":283.1544,"EPHEMERIS_TYPE":0,"CLASSIFICATION_TYPE":"U","NORAD_CAT_ID":55160,"ELEMENT_SET_NO":999,"REV_AT_EPOCH":13230,"BSTAR":-3.0579681e-5,"MEAN_MOTION_DOT":1.0e-8,"MEAN_MOTION_DDOT":0},{"OBJECT_NAME":"ONEWEB-0620","OBJECT_ID":"2023-004X","EPOCH":"2025-09-22T04:24:53.314560","MEAN_MOTION":13.11414608,"ECCENTRICITY":0.00017509,"INCLINATION":87.8775,"RA_OF_ASC_NODE":74.4761,"ARG_OF_PERICENTER":98.4166,"MEAN_ANOMALY":261.716,"EPHEMERIS_TYPE":0,"CLASSIFICATION_TYPE":"U","NORAD_CAT_ID":55161,"ELEMENT_SET_NO":999,"REV_AT_EPOCH":13070,"BSTAR":-0.00091008125,"MEAN_MOTION_DOT":-3.1e-6,"MEAN_MOTION_DDOT":0},{"OBJECT_NAME":"ONEWEB-0621","OBJECT_ID":"2023-004Y","EPOCH":"2025-09-22T05:03:57.515040","MEAN_MOTION":13.1141934,"ECCENTRICITY":0.00017991,"INCLINATION":87.8795,"RA_OF_ASC_NODE":74.4316,"ARG_OF_PERICENTER":84.2112,"MEAN_ANOMALY":275.9221,"EPHEMERIS_TYPE":0,"CLASSIFICATION_TYPE":"U","NORAD_CAT_ID":55162,"ELEMENT_SET_NO":999,"REV_AT_EPOCH":13068,"BSTAR":-0.00028124142,"MEAN_MOTION_DOT":-8.7e-7,"MEAN_MOTION_DDOT":0},{"OBJECT_NAME":"ONEWEB-0622","OBJECT_ID":"2023-004Z","EPOCH":"2025-09-21T23:41:41.562240","MEAN_MOTION":13.11418064,"ECCENTRICITY":0.00024482,"INCLINATION":87.8781,"RA_OF_ASC_NODE":74.4948,"ARG_OF_PERICENTER":92.4916,"MEAN_ANOMALY":267.6493,"EPHEMERIS_TYPE":0,"CLASSIFICATION_TYPE":"U","NORAD_CAT_ID":55163,"ELEMENT_SET_NO":999,"REV_AT_EPOCH":13064,"BSTAR":0.00054338691,"MEAN_MOTION_DOT":2.05e-6,"MEAN_MOTION_DDOT":0},{"OBJECT_NAME":"ONEWEB-0623","OBJECT_ID":"2023-004AA","EPOCH":"2025-09-22T04:35:27.208032","MEAN_MOTION":13.17650057,"ECCENTRICITY":0.00023658,"INCLINATION":87.9056,"RA_OF_ASC_NODE":59.192,"ARG_OF_PERICENTER":84.698,"MEAN_ANOMALY":275.4422,"EPHEMERIS_TYPE":0,"CLASSIFICATION_TYPE":"U","NORAD_CAT_ID":55164,"ELEMENT_SET_NO":999,"REV_AT_EPOCH":13229,"BSTAR":0.00016566957,"MEAN_MOTION_DOT":7.7e-7,"MEAN_MOTION_DDOT":0},{"OBJECT_NAME":"ONEWEB-0624","OBJECT_ID":"2023-004AB","EPOCH":"2025-09-22T02:10:19.152480","MEAN_MOTION":13.12914264,"ECCENTRICITY":0.00018235,"INCLINATION":87.8911,"RA_OF_ASC_NODE":43.9038,"ARG_OF_PERICENTER":89.9172,"MEAN_ANOMALY":270.2166,"EPHEMERIS_TYPE":0,"CLASSIFICATION_TYPE":"U","NORAD_CAT_ID":55165,"ELEMENT_SET_NO":999,"REV_AT_EPOCH":13289,"BSTAR":6.5467577e-5,"MEAN_MOTION_DOT":3.6e-7,"MEAN_MOTION_DDOT":0},{"OBJECT_NAME":"ONEWEB-0625","OBJECT_ID":"2023-004AC","EPOCH":"2025-09-22T04:20:52.515168","MEAN_MOTION":13.17649207,"ECCENTRICITY":0.00015193,"INCLINATION":87.9054,"RA_OF_ASC_NODE":59.1904,"ARG_OF_PERICENTER":91.8797,"MEAN_ANOMALY":268.2508,"EPHEMERIS_TYPE":0,"CLASSIFICATION_TYPE":"U","NORAD_CAT_ID":55166,"ELEMENT_SET_NO":999,"REV_AT_EPOCH":13228,"BSTAR":0.00032295346,"MEAN_MOTION_DOT":1.38e-6,"MEAN_MOTION_DDOT":0},{"OBJECT_NAME":"ONEWEB-0626","OBJECT_ID":"2023-004AD","EPOCH":"2025-09-22T04:06:17.966592","MEAN_MOTION":13.17647864,"ECCENTRICITY":0.0001708,"INCLINATION":87.9055,"RA_OF_ASC_NODE":59.1914,"ARG_OF_PERICENTER":111.9401,"MEAN_ANOMALY":248.1912,"EPHEMERIS_TYPE":0,"CLASSIFICATION_TYPE":"U","NORAD_CAT_ID":55167,"ELEMENT_SET_NO":999,"REV_AT_EPOCH":13228,"BSTAR":0.00012367014,"MEAN_MOTION_DOT":6.1e-7,"MEAN_MOTION_DDOT":0},{"OBJECT_NAME":"ONEWEB-0627","OBJECT_ID":"2023-004AE","EPOCH":"2025-09-22T03:49:17.749344","MEAN_MOTION":13.17649146,"ECCENTRICITY":0.00022599,"INCLINATION":87.9054,"RA_OF_ASC_NODE":59.195,"ARG_OF_PERICENTER":89.7833,"MEAN_ANOMALY":270.3557,"EPHEMERIS_TYPE":0,"CLASSIFICATION_TYPE":"U","NORAD_CAT_ID":55168,"ELEMENT_SET_NO":999,"REV_AT_EPOCH":13228,"BSTAR":-2.7768501e-5,"MEAN_MOTION_DOT":2.0e-8,"MEAN_MOTION_DDOT":0},{"OBJECT_NAME":"ONEWEB-0628","OBJECT_ID":"2023-004AF","EPOCH":"2025-09-22T03:00:39.916800","MEAN_MOTION":13.12444051,"ECCENTRICITY":0.00022523,"INCLINATION":87.8924,"RA_OF_ASC_NODE":43.9019,"ARG_OF_PERICENTER":85.3686,"MEAN_ANOMALY":274.77,"EPHEMERIS_TYPE":0,"CLASSIFICATION_TYPE":"U","NORAD_CAT_ID":55169,"ELEMENT_SET_NO":999,"REV_AT_EPOCH":13287,"BSTAR":-1.9044475e-5,"MEAN_MOTION_DOT":6.0e-8,"MEAN_MOTION_DDOT":0},{"OBJECT_NAME":"ONEWEB-0629","OBJECT_ID":"2023-004AG","EPOCH":"2025-09-22T03:14:04.028640","MEAN_MOTION":13.17649667,"ECCENTRICITY":0.00017047,"INCLINATION":87.9059,"RA_OF_ASC_NODE":59.1947,"ARG_OF_PERICENTER":81.5905,"MEAN_ANOMALY":278.542,"EPHEMERIS_TYPE":0,"CLASSIFICATION_TYPE":"U","NORAD_CAT_ID":55170,"ELEMENT_SET_NO":999,"REV_AT_EPOCH":13228,"BSTAR":0.00019300871,"MEAN_MOTION_DOT":8.8e-7,"MEAN_MOTION_DDOT":0}]
