ONEWEB-0598             
1 55154U 23004Q   25265.20599128 -.00000197  00000+0 -59082-3 0  9990
2 55154  87.8783  74.4625 0001560 114.0941 246.0350 13.11417706130772
ONEWEB-0599             
1 55155U 23004R   25265.12209723  .00000046  00000+0  84135-4 0  9990
2 55155  87.9063  59.1854 0001522  97.3021 262.8284 13.17649486132186
ONEWEB-0614             
1 55156U 23004S   25265.20089341 -.00000384  00000+0 -11199-2 0  9997
2 55156  87.8779  74.4736 0001987  87.1513 272.9842 13.11416048130716
ONEWEB-0616             
1 55157U 23004T   25264.93647083  .00000174  00000+0  41394-3 0  9996
2 55157  87.9063  59.2132 0000535  70.7576 289.3613 13.17649720132373
ONEWEB-0617             
1 55158U 23004U   25265.18903571 -.00000561  00000+0 -16201-2 0  9992
2 55158  87.8780  74.4541 0002002  93.7172 266.4185 13.11416126130734
ONEWEB-0618             
1 55159U 23004V   25265.08259457  .00002902  00000+0  31704-3 0  9994
2 55159  86.9032 286.0016 0013382 197.4393 162.6375 14.87479424141816
ONEWEB-0619             
1 55160U 23004W   25265.19635357  .00000001  00000+0 -30580-4 0  9996
2 55160  87.9062  59.1360 0001774  76.9785 283.1544 13.17648992132302
ONEWEB-0620             
1 55161U 23004X   25265.18395040 -.00000310  00000+0 -91008-3 0  9993
2 55161  87.8775  74.4761 0001750  98.4166 261.7160 13.11414608130701
ONEWEB-0621             
1 55162U 23004Y   25265.21108235 -.00000087  00000+0 -28124-3 0  9996
2 55162  87.8795  74.4316 0001799  84.2112 275.9221 13.11419340130687
ONEWEB-0622             
1 55163U 23004Z   25264.98728660  .00000205  00000+0  54339-3 0  9997
2 55163  87.8781  74.4948 0002448  92.4916 267.6493 13.11418064130646
ONEWEB-0623             
1 55164U 23004AA  25265.19128713  .00000077  00000+0  16567-3 0  9993
2 55164  87.9056  59.1920 0002365  84.6980 275.4422 13.17650057132293
ONEWEB-0624             
1 55165U 23004AB  25265.09049945  .00000036  00000+0  65468-4 0  9992
2 55165  87.8911  43.9038 0001823  89.9172 270.2166 13.12914264132895
ONEWEB-0625             
1 55166U 23004AC  25265.18116337  .00000138  00000+0  32295-3 0  9997
2 55166  87.9054  59.1904 0001519  91.8797 268.2508 13.17649207132280
ONEWEB-0626             
1 55167U 23004AD  25265.17104128  .00000061  00000+0  12367-3 0  9995
2 55167  87.9055  59.1914 0001708 111.9401 248.1912 13.17647864132282
ONEWEB-0627             
1 55168U 23004AE  25265.15923321  .00000002  00000+0 -27769-4 0  9997
2 55168  87.9054  59.1950 0002259  89.7833 270.3557 13.17649146132282
ONEWEB-0628             
1 55169U 23004AF  25265.12546200  .00000006  00000+0 -19044-4 0  9993
2 55169  87.8924  43.9019 0002252  85.3686 274.7700 13.12444051132872
ONEWEB-0629             
1 55170U 23004AG  25265.13476885  .00000088  00000+0  19301-3 0  9991
2 55170  87.9059  59.1947 0001704  81.5905 278.5420 13.17649667132287
